STARLINK-30538          
1 57994U 23153D   25128.88559478  .00003819  00000+0  29759-3 0  9995
2 57994  43.0028 285.1620 0000848 294.7390  65.3364 15.02542825 88929
STARLINK-30517          
1 57995U 23153E   25128.88226384  .00000713  00000+0  67869-4 0  9998
2 57995  43.0057 285.1371 0001211 270.7718  89.2986 15.02537531 89023
STARLINK-30523          
1 57997U 23153G   25128.49007723  .00002373  00000+0  19073-3 0  9998
2 57997  43.0019 287.3613 0001346 274.8327  85.2361 15.02532508 88960
STARLINK-30531          
1 57998U 23153H   25128.91877483 -.00000777  00000+0 -42475-4 0  9995
2 57998  43.0030 284.5607 0001680 275.0351  85.0299 15.02536882 89033
STARLINK-30552          
1 57999U 23153J   25128.87561265  .00000524  00000+0  53853-4 0  9999
2 57999  43.0027 285.0924 0000992 278.7076  81.3654 15.02533823 89033
STARLINK-30545          
1 58000U 23153K   25128.87228116  .00000197  00000+0  29655-4 0  9997
2 58000  43.0027 285.0645 0001256 280.0963  79.9738 15.02533652 89027
STARLINK-30535          
1 58001U 23153L   25128.93542740  .00001391  00000+0  11804-3 0  9990
2 58001  43.0032 284.6777 0001335 263.9042  96.1648 15.02532316 89040
STARLINK-30540          
1 58002U 23153M   25128.90557003  .00000431  00000+0  46980-4 0  9994
2 58002  43.0046 285.2960 0001342 271.0469  89.0219 15.02538281 88926
STARLINK-30546          
1 58003U 23153N   25128.73266944 -.00001406  00000+0 -89023-4 0  9997
2 58003  43.0006 285.7394 0000967 277.7834  82.2899 15.02531804 89014
STARLINK-30539          
1 58004U 23153P   25128.72933468  .00006339  00000+0  48407-3 0  9997
2 58004  43.0049 285.7110 0001470 278.0052  82.0623 15.02522117 89003
STARLINK-30530          
1 58005U 23153Q   25128.12437419 -.00000459  00000+0 -18885-4 0  9994
2 58005  43.0032 288.9121 0001410 263.9256  96.1426 15.02534820 88916
STARLINK-30526          
1 58006U 23153R   25128.07183514  .00002268  00000+0  18291-3 0  9991
2 58006  43.0040 264.1863 0001743 271.4117  88.6526 15.02543921 89194
STARLINK-30527          
1 58007U 23153S   25128.03414174 -.00000450  00000+0 -68349-5 0  9991
2 58007  43.0019 124.5580 0001079 263.0242  97.0487 15.27573482 90716
STARLINK-30522          
1 58008U 23153T   25128.61300929 -.00018016  00000+0 -13190-2 0  9996
2 58008  43.0034 286.5519 0001669 284.1709  75.8948 15.02621198 88985
STARLINK-30486          
1 58009U 23153U   25128.46009079  .00000038  00000+0  17879-4 0  9995
2 58009  43.0036 287.1276 0001618 272.0530  88.0127 15.02533553 88866
STARLINK-30520          
1 58010U 23153V   25128.45021162  .00001041  00000+0  92133-4 0  9994
2 58010  43.0048 287.9008 0002487 260.2941  99.7621 15.02539241 88859
STARLINK-30497          
1 58011U 23153W   25128.91223424 -.00000569  00000+0 -27066-4 0  9990
2 58011  43.0020 285.3464 0000958 220.7512 139.3259 15.02545392 89026
STARLINK-30525          
1 58012U 23153X   25128.76928294  .00000214  00000+0  30898-4 0  9993
2 58012  43.0032 285.9920 0001105 263.6478  96.4239 15.02539066 89005
THEOS-2 (T2V)           
1 58016U 23155A   25129.13334453  .00001319  00000+0  17468-3 0  9993
2 58016  97.8998 200.8693 0001386  86.1885 273.9486 14.81561989 85592
FORMOSAT-7R (TRITON)    
1 58017U 23155B   25129.15857565  .00002580  00000+0  27806-3 0  9998
2 58017  97.8653 208.1514 0001319  50.3699 309.7635 14.89313110 86051
ANSER-FLW2              
1 58018U 23155C   25129.15415389  .00010097  00000+0  42186-3 0  9993
2 58018  97.5862 204.2118 0001970 116.2005 243.9434 15.23823362 87088
ANSER-FLW1              
1 58019U 23155D   25129.15513554  .00030096  00000+0  12476-2 0  9996
2 58019  97.5924 204.5887 0004368  92.9067 267.2669 15.23830700 87089
NESS                    
1 58020U 23155E   25129.16391264  .00015168  00000+0  77436-3 0  9992
2 58020  97.6229 204.8428 0009068 161.9354 198.2202 15.16772207 87009
CSC-2                   
1 58021U 23155F   25128.70532185  .00008356  00000+0  47768-3 0  9997
2 58021  97.5838 201.0802 0006185 182.8925 177.2271 15.12922612 86851
CSC-1                   
1 58022U 23155G   25128.72270240  .00003638  00000+0  24626-3 0  9997
2 58022  97.5813 199.2192 0009069 173.4635 186.6713 15.07098550 86745
PRETTY                  
1 58023U 23155H   25129.15519401  .00007310  00000+0  39732-3 0  9996
2 58023  97.6042 204.0008 0002039  41.9269 318.2119 15.14788703 87012
MACSAT (FINCH 1)        
1 58024U 23155J   25129.18292443  .00011676  00000+0  61424-3 0  9997
2 58024  97.6109 204.4900 0003283  62.8415 297.3152 15.15807398 87027
PVCC                    
1 58025U 23155K   25129.13174242  .00004292  00000+0  26705-3 0  9998
2 58025  97.6105 202.6312 0006565  88.1508 272.0473 15.10127579 86892
STARLINK-30514          
1 58028U 23156A   25128.96206184 -.00001636  00000+0 -43134-4 0  9990
2 58028  53.1603  53.6110 0000855  94.6864 265.4235 15.30205799 89661
STARLINK-30518          
1 58029U 23156B   25129.16750260 -.00000309  00000+0  16952-5 0  9997
2 58029  53.1609  52.7662 0001041  97.6821 262.4298 15.30196729 89695
