OBJECT_NAME,OBJECT_ID,EPOCH,MEAN_MOTION,ECCENTRICITY,INCLINATION,RA_OF_ASC_NODE,ARG_OF_PERICENTER,MEAN_ANOMALY,EPHEMERIS_TYPE,CLASSIFICATION_TYPE,NORAD_CAT_ID,ELEMENT_SET_NO,REV_AT_EPOCH,BSTAR,MEAN_MOTION_DOT,MEAN_MOTION_DDOT
STARLINK-30538,2023-153D,2025-05-08T21:15:15.388992,15.02542825,.0000848,43.0028,285.1620,294.7390,65.3364,0,U,57994,999,8892,.29759E-3,.3819E-4,0
STARLINK-30517,2023-153E,2025-05-08T21:10:27.595776,15.02537531,.0001211,43.0057,285.1371,270.7718,89.2986,0,U,57995,999,8902,.67869E-4,.713E-5,0
STARLINK-30523,2023-153G,2025-05-08T11:45:42.672672,15.02532508,.0001346,43.0019,287.3613,274.8327,85.2361,0,U,57997,999,8896,.19073E-3,.2373E-4,0
STARLINK-30531,2023-153H,2025-05-08T22:03:02.145312,15.02536882,.000168,43.0030,284.5607,275.0351,85.0299,0,U,57998,999,8903,-.42475E-4,-.777E-5,0
STARLINK-30552,2023-153J,2025-05-08T21:00:52.932960,15.02533823,.0000992,43.0027,285.0924,278.7076,81.3654,0,U,57999,999,8903,.53853E-4,.524E-5,0
STARLINK-30545,2023-153K,2025-05-08T20:56:05.092224,15.02533652,.0001256,43.0027,285.0645,280.0963,79.9738,0,U,58000,999,8902,.29655E-4,.197E-5,0
STARLINK-30535,2023-153L,2025-05-08T22:27:00.927360,15.02532316,.0001335,43.0032,284.6777,263.9042,96.1648,0,U,58001,999,8904,.11804E-3,.1391E-4,0
STARLINK-30540,2023-153M,2025-05-08T21:44:01.250592,15.02538281,.0001342,43.0046,285.2960,271.0469,89.0219,0,U,58002,999,8892,.4698E-4,.431E-5,0
STARLINK-30546,2023-153N,2025-05-08T17:35:02.639616,15.02531804,.0000967,43.0006,285.7394,277.7834,82.2899,0,U,58003,999,8901,-.89023E-4,-.1406E-4,0
STARLINK-30539,2023-153P,2025-05-08T17:30:14.516352,15.02522117,.000147,43.0049,285.7110,278.0052,82.0623,0,U,58004,999,8900,.48407E-3,.6339E-4,0
STARLINK-30530,2023-153Q,2025-05-08T02:59:05.930016,15.02534820,.000141,43.0032,288.9121,263.9256,96.1426,0,U,58005,999,8891,-.18885E-4,-.459E-5,0
STARLINK-30526,2023-153R,2025-05-08T01:43:26.556096,15.02543921,.0001743,43.0040,264.1863,271.4117,88.6526,0,U,58006,999,8919,.18291E-3,.2268E-4,0
STARLINK-30527,2023-153S,2025-05-08T00:49:09.846336,15.27573482,.0001079,43.0019,124.5580,263.0242,97.0487,0,U,58007,999,9071,-.68349E-5,-.45E-5,0
STARLINK-30522,2023-153T,2025-05-08T14:42:44.002656,15.02621198,.0001669,43.0034,286.5519,284.1709,75.8948,0,U,58008,999,8898,-.1319E-2,-.18016E-3,0
STARLINK-30486,2023-153U,2025-05-08T11:02:31.844256,15.02533553,.0001618,43.0036,287.1276,272.0530,88.0127,0,U,58009,999,8886,.17879E-4,.38E-6,0
STARLINK-30520,2023-153V,2025-05-08T10:48:18.283968,15.02539241,.0002487,43.0048,287.9008,260.2941,99.7621,0,U,58010,999,8885,.92133E-4,.1041E-4,0
STARLINK-30497,2023-153W,2025-05-08T21:53:37.038336,15.02545392,.0000958,43.0020,285.3464,220.7512,139.3259,0,U,58011,999,8902,-.27066E-4,-.569E-5,0
STARLINK-30525,2023-153X,2025-05-08T18:27:46.046016,15.02539066,.0001105,43.0032,285.9920,263.6478,96.4239,0,U,58012,999,8900,.30898E-4,.214E-5,0
THEOS-2 (T2V),2023-155A,2025-05-09T03:12:00.967392,14.81561989,.0001386,97.8998,200.8693,86.1885,273.9486,0,U,58016,999,8559,.17468E-3,.1319E-4,0
FORMOSAT-7R (TRITON),2023-155B,2025-05-09T03:48:20.936160,14.89313110,.0001319,97.8653,208.1514,50.3699,309.7635,0,U,58017,999,8605,.27806E-3,.258E-4,0
ANSER-FLW2,2023-155C,2025-05-09T03:41:58.896096,15.23823362,.000197,97.5862,204.2118,116.2005,243.9434,0,U,58018,999,8708,.42186E-3,.10097E-3,0
ANSER-FLW1,2023-155D,2025-05-09T03:43:23.710656,15.23830700,.0004368,97.5924,204.5887,92.9067,267.2669,0,U,58019,999,8708,.12476E-2,.30096E-3,0
NESS,2023-155E,2025-05-09T03:56:02.052096,15.16772207,.0009068,97.6229,204.8428,161.9354,198.2202,0,U,58020,999,8700,.77436E-3,.15168E-3,0
CSC-2,2023-155F,2025-05-08T16:55:39.807840,15.12922612,.0006185,97.5838,201.0802,182.8925,177.2271,0,U,58021,999,8685,.47768E-3,.8356E-4,0
CSC-1,2023-155G,2025-05-08T17:20:41.487360,15.07098550,.0009069,97.5813,199.2192,173.4635,186.6713,0,U,58022,999,8674,.24626E-3,.3638E-4,0
PRETTY,2023-155H,2025-05-09T03:43:28.762464,15.14788703,.0002039,97.6042,204.0008,41.9269,318.2119,0,U,58023,999,8701,.39732E-3,.731E-4,0
MACSAT (FINCH 1),2023-155J,2025-05-09T04:23:24.670752,15.15807398,.0003283,97.6109,204.4900,62.8415,297.3152,0,U,58024,999,8702,.61424E-3,.11676E-3,0
PVCC,2023-155K,2025-05-09T03:09:42.545088,15.10127579,.0006565,97.6105,202.6312,88.1508,272.0473,0,U,58025,999,8689,.26705E-3,.4292E-4,0
STARLINK-30514,2023-156A,2025-05-08T23:05:22.142976,15.30205799,.0000855,53.1603,53.6110,94.6864,265.4235,0,U,58028,999,8966,-.43134E-4,-.1636E-4,0
STARLINK-30518,2023-156B,2025-05-09T04:01:12.224640,15.30196729,.0001041,53.1609,52.7662,97.6821,262.4298,0,U,58029,999,8969,.16952E-5,-.309E-5,0
